2020/11/06 22:00
LKTB 062200Z 03002KT CAVOK 04/03 Q1033 NOSIG
