2020/11/07 07:00
LKTB 070700Z VRB02KT 8000 NSC 04/02 Q1032 NOSIG
