2020/11/07 12:00
LKTB 071200Z 13010KT CAVOK 11/04 Q1030 NOSIG
