2020/11/07 15:00
LKTB 071500Z 09007KT CAVOK 10/02 Q1029 NOSIG
