2020/11/06 20:00
LKTB 062000Z 05005KT CAVOK 06/03 Q1033 NOSIG
