2020/11/07 02:00
LKTB 070200Z 04002KT CAVOK 03/02 Q1032 NOSIG
