2020/11/07 17:00
LKTB 071700Z 11009KT CAVOK 06/01 Q1028 NOSIG
