2020/11/07 00:00
LKTB 070000Z 35003KT CAVOK 03/02 Q1033 NOSIG
