2020/11/07 11:00
LKTB 071100Z 10006KT 060V130 CAVOK 11/05 Q1031 NOSIG
