2020/11/07 04:00
LKTB 070400Z 04003KT CAVOK 02/02 Q1032 NOSIG
