2020/11/07 08:00
LKTB 070800Z 08007KT 8000 NSC 05/04 Q1032 NOSIG
