2020/11/07 19:00
LKTB 071900Z 09007KT CAVOK 06/02 Q1028 NOSIG
