2020/11/06 12:00
LKTB 061200Z 19004KT 160V220 9999 FEW018 09/04 Q1034 NOSIG
