2020/11/07 01:00
LKTB 070100Z VRB02KT CAVOK 03/02 Q1033 NOSIG
