2020/11/07 16:00
LKTB 071600Z 13006KT CAVOK 09/02 Q1028 NOSIG
