2020/11/07 18:00
LKTB 071800Z 10007KT CAVOK 07/01 Q1028 NOSIG
