2020/11/06 21:00
LKTB 062100Z VRB01KT CAVOK 04/02 Q1033 NOSIG
