2020/11/07 03:00
LKTB 070300Z 05005KT CAVOK 02/01 Q1032 NOSIG
