2020/11/07 10:00
LKTB 071000Z 09005KT CAVOK 09/05 Q1031 NOSIG
