2020/11/07 06:00
LKTB 070600Z 03004KT 350V050 7000 NSC 03/01 Q1032 NOSIG
