2020/11/07 14:00
LKTB 071400Z 12011KT CAVOK 12/03 Q1029 NOSIG
