2020/11/06 14:00
LKTB 061400Z 16004KT CAVOK 09/05 Q1033 NOSIG
