2020/11/06 15:00
LKTB 061500Z 16003KT CAVOK 08/05 Q1033 NOSIG
